ALSAT-1N
1 41789U 16059G   25054.10402235  .00002192  00000-0  38942-3 0  9996
2 41789  97.8134  74.1031 0025057 279.2567  80.5805 14.67942250449683
CAS-2T & KS-1Q
1 41847U 16066G   25054.12811983  .00003683  00000-0  53099-3 0  9991
2 41847  98.4306 129.5065 0348718 140.3270 222.3999 14.42994055435665
GOES-16
1 41866U 16071A   25053.51641991 -.00000240  00000-0  00000+0 0  9997
2 41866   0.0814 284.1889 0001834  82.1951 256.9693  1.00270009 30284
FENGYUN-4A
1 41882U 16077A   25052.62774106 -.00000265  00000-0  00000+0 0  9994
2 41882   1.0928  85.3548 0004013 172.3984 251.3364  1.00665625 30165
FOX-1B (AO-91)
1 43017U 17073E   25054.17586730  .00013662  00000-0  73443-3 0  9998
2 43017  97.5486 287.7116 0181426 168.0382 192.5241 15.01878843393226
CANX-2
1 32790U 08021H   25054.17630818  .00008236  00000-0  66553-3 0  9999
2 32790  97.7983  23.3220 0011401 196.2281 163.8579 15.00023038912939
AIST-2 (RS-43)
1 39133U 13015D   25054.21455877  .00012736  00000-0  61230-3 0  9998
2 39133  64.8733  14.9363 0026824 294.4152  65.4176 15.18784620651415
NANOSATC-BR1
1 40024U 14033Q   25053.38150581  .00021680  00000-0  11973-2 0  9997
2 40024  98.0880  44.2093 0007103  60.2040 299.9895 15.13927525580969
QB50P1
1 40025U 14033R   25053.80152945  .00015548  00000-0  10248-2 0  9991
2 40025  98.0744  30.7284 0013304  63.0690 297.1894 15.07519889581045
QB50P2
1 40032U 14033Y   25053.49333553  .00013293  00000-0  92247-3 0  9995
2 40032  98.0327  20.2037 0009489  19.6298 340.5291 15.05679776580245
PERSEUS-M2
1 40037U 14033AD  25054.10440457  .00004603  00000-0  44821-3 0  9991
2 40037  97.9463 352.4728 0014365  87.3191 272.9672 14.92943980579738
PERSEUS-M1
1 40039U 14033AF  25053.75278373  .00004478  00000-0  43696-3 0  9998
2 40039  97.9220 347.4211 0014125  87.3930 272.8906 14.92869287579542
POLYITAN-1
1 40042U 14033AJ  25053.47964319  .00023332  00000-0  12916-2 0  9993
2 40042  98.0979  36.5262 0011331  22.4967 337.6758 15.13792326580558
TIGRISAT
1 40043U 14033AK  25054.16775268  .00005988  00000-0  74404-3 0  9992
2 40043  97.7187 213.0183 0052059 203.4623 156.4216 14.81963975574892
UKUBE-1
1 40074U 14037F   25054.12691916  .00016147  00000-0  12265-2 0  9998
2 40074  98.3835   7.4490 0002651  61.3640 298.7849 15.02267707576340
DEORBITSAIL
1 40719U 15032E   25053.55876356  .00013072  00000-0  12227-2 0  9991
2 40719  97.6572 275.6751 0012759  31.2900 328.9077 14.94169612519386
HORYU-IV
1 41340U 16012D   25053.56022393  .00029080  00000-0  96469-3 0  9993
2 41340  30.9994 128.2774 0006390  41.2082 318.9043 15.30035706496348
D-SAT
1 42794U 17036AF  25053.42214267  .00017305  00000-0  10191-2 0  9996
2 42794  97.5048  33.5423 0098468  16.7113 343.7321 15.07597918418339
CORVUS-BC2
1 42846U 17042X   25053.47831088  .00006558  00000-0  50952-3 0  9990
2 42846  97.3700 231.3380 0011870 305.4236  54.5880 15.01575777414950
CORVUS-BC1
1 42847U 17042Y   25053.54643379  .00006831  00000-0  52769-3 0  9995
2 42847  97.3730 231.8523 0010661 280.4669  79.5355 15.01791640414983
APRIZESAT-5 
1 37792U 11044E   25054.11769197  .00002289  00000-0  30623-3 0  9993
2 37792  98.2337 329.7934 0055237 103.8212 256.9153 14.79456167728051
APRIZESAT-6
1 37793U 11044F   25054.19899054  .00001705  00000-0  25358-3 0  9999
2 37793  98.2732 309.4960 0044078 175.1824 305.4057 14.75707759726623
APRIZESAT-7
1 39416U 13066A   25054.13844651  .00003805  00000-0  40045-3 0  9999
2 39416  97.7067  11.8945 0037318   1.3817 358.7497 14.89474080609891
APRIZESAT-8
1 39425U 13066K   25053.92758952  .00003092  00000-0  35317-3 0  9997
2 39425  97.7631   5.4684 0049072  63.3035 297.3192 14.85904683608721
BUGSAT-1 (TITA)
1 40014U 14033E   25053.79690706  .00007869  00000-0  49479-3 0  9995
2 40014  98.0897 114.5605 0032237  12.4026 347.7987 15.09095989583383
SAUDISAT-4
1 40016U 14033G   25054.20080593  .00002417  00000-0  33330-3 0  9994
2 40016  97.6899 214.2158 0045585 190.8003 169.2235 14.78368796575297
TABLETSAT-AURORA
1 40017U 14033H   25054.13329223  .00011377  00000-0  71705-3 0  9996
2 40017  98.0901  96.0011 0014418  50.0808 310.1684 15.09239007582753
APRIZESAT-9
1 40018U 14033J   25053.99891920  .00001638  00000-0  25361-3 0  9994
2 40018  97.8343 196.2456 0066423 301.6378  57.8361 14.73097286573115
APRIZESAT-10
1 40019U 14033K   25053.32825724  .00001274  00000-0  21087-3 0  9998
2 40019  97.8978 188.1494 0080287   7.1929 353.0409 14.69909068571731
AISAT
1 40054U 14034B   25054.14339040  .00014823  00000-0  12912-2 0  9990
2 40054  98.3068 289.7624 0009868  28.4682 331.7075 14.96978469575251
COSMOS-2407 [+]
1 28380U 04028A   25054.12358907  .00000102  00000-0  88088-4 0  9995
2 28380  82.9563  69.6015 0039929 150.4763 272.8517 13.76273214 34174
COSMOS-2414 [+]
1 28521U 05002A   25053.47094453  .00000134  00000-0  99191-4 0  9997
2 28521  82.9475  46.4581 0038690 256.9507 102.7336 13.87853935 17274
COSMOS-2463 [+]
1 36519U 10017A   25054.24752883  .00000105  00000-0  99132-4 0  9992
2 36519  82.9566 241.5906 0036581  21.0547 152.3225 13.71613249742360
NOAA-15
1 25338U 98030A   25054.15897639  .00000413  00000-0  18773-3 0  9992
2 25338  98.5475  81.7948 0009371 314.9572  45.0848 14.26890676393226
NOAA-18
1 28654U 05018A   25054.16567323  .00000373  00000-0  22099-3 0  9996
2 28654  98.8498 134.8194 0015063  73.8422 286.4407 14.13522923 18714
NOAA-19
1 33591U 09005A   25054.15472663  .00000339  00000-0  20504-3 0  9994
2 33591  99.0117 118.2065 0012874 306.3462  53.6521 14.13291689827079
SARAL
1 39086U 13009A   25053.82677535  .00000321  00000-0  13413-3 0  9998
2 39086  98.5521 241.5614 0000828 256.4686 103.6406 14.32662641626960
HODOYOSHI-1
1 40299U 14070B   25054.12971439  .00398439  68078-4  85403-3 0  9990
2 40299  97.0856 122.5510 0003999 210.4178 149.6869 15.98553197574350
LAPAN-A3
1 41603U 16040E   25054.17570406  .00006227  00000-0  22600-3 0  9991
2 41603  97.1401  63.0279 0009348 293.0554  66.9700 15.28617588481526
BIROS
1 41604U 16040F   25053.48418755  .00039489  00000-0  62160-3 0  9994
2 41604  97.1002  82.7734 0005779 192.5607 167.5504 15.53472944482821
METOP-A
1 29499U 06044A   25053.84150552  .00005559  00000-0  66780-3 0  9996
2 29499  98.3332 141.6636 0181949 154.7771 316.0036 14.73246983957652
METEOR M1
1 35865U 09049A   25053.62938000  .00000315  00000-0  15955-3 0  9999
2 35865  98.6714  16.5010 0001132 249.8680 110.2377 14.22956044801187
METOP-B
1 38771U 12049A   25054.17975669  .00000277  00000-0  14641-3 0  9993
2 38771  98.5936 111.3161 0000557  57.5721 302.5511 14.21437378645200
METEOR M2
1 40069U 14037A   25054.10568493  .00000371  00000-0  18954-3 0  9997
2 40069  98.4597  43.4317 0005700   1.4024 358.7169 14.21223897551265
CSSWE
1 38761U 12048D   25053.81463905  .00020153  00000-0  79223-3 0  9998
2 38761  64.6629 245.0579 0119427 302.8701  56.0973 15.19291396 42986
MCUBED-2
1 39469U 13072H   25053.46716945  .00018176  00000-0  96218-3 0  9993
2 39469 120.4936 320.8323 0175695 216.2439 142.6611 15.03280181 45345
IPEX
1 39471U 13072K   25053.71848974  .00014304  00000-0  86109-3 0  9999
2 39471 120.4696 291.4965 0189636 209.5311 149.4924 14.97401767 43167
FOX-1A (AO-85)
1 40967U 15058D   25054.10302022  .00005499  00000-0  47988-3 0  9997
2 40967  64.7780 323.5936 0176211 228.7012 129.8816 14.86618194 42235
OOREOS
1 37224U 10062C   25054.15898622  .00004834  00000-0  50003-3 0  9994
2 37224  71.9708  82.9102 0017426 261.8403  98.0789 14.90439256 45180
STARS (KUKAI)
1 33498U 09002G   25053.76120271  .00007202  00000-0  74752-3 0  9998
2 33498  98.1212 339.7949 0008108 318.8580  41.2025 14.90250562867353
YUBELEINY-2 (RS-40)
1 38735U 12041C   25053.81927061  .00000044  00000-0  24441-3 0  9999
2 38735  82.4797  13.5895 0018304  35.6596 324.5702 12.42626681570403
AIST-1
1 39492U 13078C   25054.21898163  .00004859  00000-0  45444-3 0  9990
2 39492  82.4182  14.1094 0019525  81.5482 278.7950 14.93786290606013
VELOX-1
1 40057U 14034E   25054.17410747  .00008821  00000-0  88935-3 0  9990
2 40057  98.3102 287.9979 0009470  50.2700 309.9350 14.91345709575049
DX1
1 40071U 14037C   25054.09881464  .00004095  00000-0  45951-3 0  9998
2 40071  98.3382 344.4430 0008597  39.2060 320.9776 14.87363999574906
AAUSAT CUBESAT 2
1 32788U 08021F   25053.55342734  .00111874  00000-0  19903-2 0  9993
2 32788  97.6064  45.6658 0005727  74.7655 285.4229 15.49732087916612
COSMOS-2491 (RS-46) [i]
1 39497U 13076E   25054.21220518 -.00000002  00000-0 -83675-4 0  9993
2 39497  82.4826 107.0185 0013869  59.7037 300.5413 12.43486177506486
COSMOS-2499 (RS-47) [i]
1 39765U 14028E   25054.11932195  .00000058  00000-0  17220-3 0  9990
2 39765  82.4481 215.6775 0232135  46.5743 315.4422 12.82886917503817
TRANSIT 5B-5
1   965U 64083D   25054.19467348  .00000124  00000-0  16177-3 0  9991
2   965  90.0563 199.6485 0039852 237.1744 297.4664 13.56947066979215
EUTELSAT 1-F4 (ECS 4)
1 18351U 87078B   25053.64907706 -.00000237  00000-0  00000-0 0  9995
2 18351  14.1706 345.4927 0010480  22.8168 183.3341  0.98691293122020
BISONSAT
1 40968U 15058E   25053.70508259  .00006803  00000-0  55423-3 0  9996
2 40968  64.7777 314.4843 0167492 227.8033 130.8760 14.89905896 45067
DTUSAT-2
1 40030U 14033W   25053.40074167  .00013913  00000-0  96758-3 0  9997
2 40030  98.0422  20.3069 0011722  67.8248 292.4221 15.05569972580253
ELEKTRO-L2
1 41105U 15074A   25053.32581382 -.00000110  00000-0  00000-0 0  9998
2 41105   5.4774  76.4338 0003072 223.7246 315.0279  1.00273163 33690
DOVE-3
1 39429U 13066P   25054.17271707  .00005294  00000-0  75241-3 0  9993
2 39429  97.7287 292.9550 0122797 133.4377 227.7129 14.72195088600637
FORTE
1 24920U 97047A   25054.18722817  .00000647  00000-0  28550-3 0  9996
2 24920  69.9549  15.6715 0024134 217.4933 142.4507 14.27589295430584
DMSP 5D-2 F15/USA-147
1 25991U 99067A   25053.80634938  .00000348  00000-0  19494-3 0  9998
2 25991  99.0512  79.9427 0008887 286.8506 246.5911 14.17299367302752
